STARLINK-1007           
1 44713U 19074A   23261.74471065  .00009123  00000+0  63027-3 0  9993
2 44713  53.0536 280.0931 0001671  89.8023 270.3158 15.06416320212820
STARLINK-1008           
1 44714U 19074B   23261.32546457  .00011575  00000+0  79424-3 0  9998
2 44714  53.0533 281.9791 0001524  82.4166 277.6996 15.06421488212591
STARLINK-1009           
1 44715U 19074C   23261.44710340  .00016642  00000+0  11330-2 0  9997
2 44715  53.0533 281.4345 0001450  78.5499 281.5653 15.06416580212776
STARLINK-1010           
1 44716U 19074D   23261.33283147  .00009448  00000+0  65186-3 0  9991
2 44716  53.0533 281.9454 0001375 104.7461 255.3680 15.06427051212572
STARLINK-1011           
1 44717U 19074E   23261.39733497  .00017486  00000+0  11888-2 0  9996
2 44717  53.0531 301.6583 0001425  95.1209 264.9942 15.06433150212320
STARLINK-1012           
1 44718U 19074F   23261.36968789  .00016045  00000+0  10931-2 0  9996
2 44718  53.0531 281.7811 0001246 109.2575 250.8549 15.06417312212595
STARLINK-1013           
1 44719U 19074G   23261.37705960  .00003614  00000+0  26125-3 0  9999
2 44719  53.0555 281.7481 0001540 101.1705 258.9457 15.06418411213722
STARLINK-1014           
1 44720U 19074H   23261.32820380  .00016180  00000+0  11019-2 0  9997
2 44720  53.0529 281.9578 0001431  81.9847 278.1304 15.06423145212594
STARLINK-1015           
1 44721U 19074J   23261.38443325  .00007315  00000+0  50917-3 0  9995
2 44721  53.0532 281.7167 0001490  95.8612 264.2547 15.06421218212594
STARLINK-1017           
1 44723U 19074L   23261.46920901  .00013854  00000+0  94636-3 0  9997
2 44723  53.0534 281.3336 0001582 110.5299 249.5859 15.06430164212615
STARLINK-1019           
1 44724U 19074M   23261.36600534  .00013290  00000+0  90883-3 0  9998
2 44724  53.0532 281.7993 0001383  98.6514 261.4632 15.06424469212592
STARLINK-1020           
1 44725U 19074N   23261.43788195  .00020291  00000+0  13760-2 0  9994
2 44725  53.0542 301.4731 0001409  95.7508 264.3641 15.06432622212327
STARLINK-1021           
1 44726U 19074P   23261.29596640  .00001369  00000+0  11075-3 0  9994
2 44726  53.0542 282.1136 0001391  97.6588 262.4559 15.06419971212588
STARLINK-1024           
1 44729U 19074S   23261.48025069  .00043334  00000+0  69058-3 0  9992
2 44729  53.0173 210.7079 0008776  93.1608 267.0405 15.52799363213558
STARLINK-1026           
1 44731U 19074U   23261.68845583  .00205320  26618-4  64917-3 0  9990
2 44731  53.0508 245.8772 0000912 154.9564 205.1506 15.90919851213297
STARLINK-1027           
1 44732U 19074V   23261.42682371  .00019376  00000+0  13148-2 0  9992
2 44732  53.0540 301.5244 0001440  97.4605 262.6547 15.06436541212325
STARLINK-1028           
1 44733U 19074W   23261.35863738  .00000478  00000+0  50953-4 0  9993
2 44733  53.0543 281.8316 0001381  91.9441 268.1706 15.06397834212598
STARLINK-1029           
1 44734U 19074X   23261.24068858  .00022403  00000+0  15165-2 0  9998
2 44734  53.0533 202.3583 0001292  79.4295 280.6840 15.06440185213677
STARLINK-1030           
1 44735U 19074Y   23261.43419652  .00019899  00000+0  13499-2 0  9995
2 44735  53.0527 301.4943 0001375 102.0277 258.0866 15.06430236212321
STARLINK-1031           
1 44736U 19074Z   23261.44894230  .00019199  00000+0  13032-2 0  9992
2 44736  53.0534 301.4263 0001430  75.3205 284.7943 15.06429890212337
STARLINK-1032           
1 44737U 19074AA  23261.32730088  .00004660  00000+0  33137-3 0  9996
2 44737  53.0539 301.9735 0001592  87.9179 272.1993 15.06420709212314
STARLINK-1033           
1 44738U 19074AB  23261.91667824  .00287189  00000+0  10261-2 0  9990
2 44738  53.0435 233.3159 0005967  82.6587  66.2486 15.87543777213481
STARLINK-1035           
1 44740U 19074AD  23261.38996390  .00020861  00000+0  14139-2 0  9997
2 44740  53.0536 301.6906 0001433  98.8272 261.2880 15.06435516212496
STARLINK-1036           
1 44741U 19074AE  23261.40102114  .00010090  00000+0  69491-3 0  9999
2 44741  53.0532 301.6422 0001508  98.8519 261.2641 15.06422511212321
STARLINK-1038           
1 44743U 19074AG  23261.38443548  .00028413  00000+0  19167-2 0  9999
2 44743  53.0543 321.7152 0001500 102.6962 257.4195 15.06438515212216
STARLINK-1039           
1 44744U 19074AH  23261.46184102  .00015681  00000+0  10683-2 0  9994
2 44744  53.0541 321.3684 0001487  84.6636 275.4523 15.06432832212055
STARLINK-1041           
1 44746U 19074AK  23261.44709512  .00019953  00000+0  13532-2 0  9994
2 44746  53.0547 321.4333 0001097  74.5825 285.5285 15.06439920212221
STARLINK-1042           
1 44747U 19074AL  23261.47657798  .00025161  00000+0  17004-2 0  9992
2 44747  53.0546 321.3023 0001507  90.2355 269.8806 15.06435705212068
STARLINK-1043           
1 44748U 19074AM  23261.50606875  .00028527  00000+0  19240-2 0  9990
2 44748  53.0544 321.1678 0001321  94.1896 265.9244 15.06444276212233
STARLINK-1046           
1 44751U 19074AQ  23261.45446752  .00025586  00000+0  17282-2 0  9990
2 44751  53.0541 321.4026 0001611  92.3526 267.7647 15.06445440212057
STARLINK-1047           
1 44752U 19074AR  23261.47473648  .00008410  00000+0  58240-3 0  9994
2 44752  53.0538 301.3085 0001445 102.4793 257.6358 15.06425142212335
STARLINK-1048           
1 44753U 19074AS  23261.74565257  .00000670  00000+0  63856-4 0  9993
2 44753  53.0536 280.0905 0001724  82.8302 277.2883 15.06412322212826
STARLINK-1049           
1 44754U 19074AT  23261.91667824  .00158993  00000+0  83436-3 0  9993
2 44754  53.0376 199.4390 0002501 166.3811 206.5563 15.79792894213968
STARLINK-1052           
1 44757U 19074AW  23261.34554349  .00021378  00000+0  14097-2 0  9992
2 44757  53.0546 301.8112 0002227  43.6988 316.4177 15.07437282212316
STARLINK-1053           
1 44758U 19074AX  23261.43605156  .00021811  00000+0  14763-2 0  9998
2 44758  53.0549 321.5705 0001652  78.1731 281.9443 15.06457853212055
STARLINK-1054           
1 44759U 19074AY  23261.48395943  .00028022  00000+0  18904-2 0  9996
2 44759  53.0537 321.2700 0001289  70.2934 289.8194 15.06443888209700
STARLINK-1055           
1 44760U 19074AZ  23261.40214306  .00009565  00000+0  44806-3 0  9995
2 44760  53.0534 306.9731 0001843  77.4314 282.6887 15.20363121212262
STARLINK-1056           
1 44761U 19074BA  23261.48026609  .00011690  00000+0  80168-3 0  9994
2 44761  53.0554 321.2881 0001570 106.3817 253.7345 15.06431718212066
STARLINK-1057           
1 44762U 19074BB  23261.48211337  .00014594  00000+0  99592-3 0  9996
2 44762  53.0531 301.2760 0001367  99.5142 260.6001 15.06426365212501
STARLINK-1058           
1 44763U 19074BC  23261.43509135  .00027998  00000+0  18892-2 0  9993
2 44763  53.0537 321.4803 0001397  98.4009 261.7139 15.06435703212053
STARLINK-1059           
1 44764U 19074BD  23261.35733200  .00009851  00000+0  41308-3 0  9994
2 44764  53.0854 273.6845 0007279  54.9250 305.2429 15.24115449212722
STARLINK-1060           
1 44765U 19074BE  23261.43052164  .00003131  00000+0  22892-3 0  9999
2 44765  53.0535 301.5118 0001419  99.8764 260.2385 15.06408338212320
STARLINK-1061           
1 44766U 19074BF  23261.69404480  .00024086  00000+0  16283-2 0  9998
2 44766  53.0535 320.3289 0001414  92.1030 268.0121 15.06447506212263
STARLINK-1062           
1 44767U 19074BG  23261.68574166  .00001433  00000+0  11508-3 0  9994
2 44767  53.0553 320.3555 0002308  56.0909 304.0299 15.06409991212260
STARLINK-1063           
1 44768U 19074BH  23261.44340994  .00027698  00000+0  18689-2 0  9996
2 44768  53.0547 321.4489 0001397  96.2419 263.8729 15.06442790212063
STARLINK-1067           
1 44771U 19074BL  23261.49869601  .00023346  00000+0  15793-2 0  9995
2 44771  53.0541 321.2030 0001315  97.4246 262.6892 15.06439573212065
STARLINK-1068           
1 44772U 19074BM  23261.42313429  .00019464  00000+0  13208-2 0  9996
2 44772  53.0534 301.5426 0001446  99.5204 260.5948 15.06432751212329
STARLINK-1073           
1 44914U 20001A   23261.24068785  .00004044  00000+0  29018-3 0  9993
2 44914  53.0544  82.3567 0001262  80.1416 279.9716 15.06403917203672
STARLINK-1084           
1 44915U 20001B   23261.46921708  .00013663  00000+0  93388-3 0  9999
2 44915  53.0540  81.3317 0001200  95.3928 264.7198 15.06417984203719
STARLINK-1098           
1 44917U 20001D   23261.47290578  .00010107  00000+0  69601-3 0  9997
2 44917  53.0541  81.3125 0001087  91.9641 268.1472 15.06421452203714
STARLINK-1099           
1 44918U 20001E   23261.48670135  .00008293  00000+0  57480-3 0  9995
2 44918  53.0540  81.2812 0000980  96.9102 263.1999 15.06410290204453
STARLINK-1102           
1 44920U 20001G   23261.74291734  .00011500  00000+0  50896-3 0  9990
2 44920  53.0597  59.6812 0002527 242.5568 117.5171 15.22119687204044
STARLINK-1103           
1 44921U 20001H   23261.71890607  .00012318  00000+0  84381-3 0  9996
2 44921  53.0538  80.2019 0001232  90.2343 269.8787 15.06426745203726
STARLINK-1104           
1 44922U 20001J   23261.48764567  .00008000  00000+0  55525-3 0  9997
2 44922  53.0538  81.2475 0001091  82.9431 277.1682 15.06405636203714
STARLINK-1106           
1 44923U 20001K   23261.74125693  .00011543  00000+0  54899-3 0  9997
2 44923  53.0554  67.8896 0003383  92.1029 268.0353 15.19630531203927
STARLINK-1111           
1 44924U 20001L   23261.23701195  .00012656  00000+0  86682-3 0  9990
2 44924  53.0534  82.3966 0001077  66.3240 293.7862 15.06406547203678
STARLINK-1112           
1 44925U 20001M   23261.71616426  .00016717  00000+0  11376-2 0  9995
2 44925  53.0541  80.2252 0001207  89.9658 270.1469 15.06428389203749
STARLINK-1113           
1 44926U 20001N   23261.24806900  .00011396  00000+0  78250-3 0  9995
2 44926  53.0536  82.4131 0001285  91.6393 268.4743 15.06410885204362
STARLINK-1114           
1 44927U 20001P   23261.46184009  .00002318  00000+0  17443-3 0  9990
2 44927  53.0542  81.3606 0001060  89.3620 270.7490 15.06408598203714
STARLINK-1119           
